*******************************************************************************
Ephemeris / WWW_USER Tue Mar 27 21:52:07 2018 Pasadena, USA      / Horizons    
*******************************************************************************
Target body name: Pluto (999)                     {source: plu055l_merged}
Center body name: Solar System Barycenter (0)     {source: DE431mx}
Center-site name: BODY CENTER
*******************************************************************************
Start time      : A.D. 2018-Feb-08 00:00:00.0000 TDB
Stop  time      : A.D. 2019-Feb-08 00:00:00.0000 TDB
Step-size       : 7200 minutes
*******************************************************************************
Center geodetic : 0.00000000,0.00000000,0.0000000 {E-lon(deg),Lat(deg),Alt(km)}
Center cylindric: 0.00000000,0.00000000,0.0000000 {E-lon(deg),Dxy(km),Dz(km)}
Center radii    : (undefined)                                                  
Output units    : AU-D                                                         
Output type     : GEOMETRIC cartesian states
Output format   : 2 (position and velocity)
Reference frame : ICRF/J2000.0                                                 
Coordinate systm: Ecliptic and Mean Equinox of Reference Epoch                 
*******************************************************************************
JDTDB
   X     Y     Z
   VX    VY    VZ
*******************************************************************************
$$SOE
2458367.500000000 = A.D. 2018-Sep-06 00:00:00.0000 TDB 
   1.152930582561232E+01 -3.159107295939570E+01  4.547993399344098E-02
   3.018916112161626E-03  4.089538428744543E-04 -9.297532943914494E-04
2458372.500000000 = A.D. 2018-Sep-11 00:00:00.0000 TDB 
   1.154438208077800E+01 -3.158899538473917E+01  4.090879132498772E-02
   3.027268244525655E-03  4.239711025534514E-04 -9.230006148230616E-04
2458377.500000000 = A.D. 2018-Sep-16 00:00:00.0000 TDB 
   1.155945506978655E+01 -3.158692444519380E+01  3.631892294728543E-02
   3.019246269909567E-03  4.268936754275043E-04 -9.070915189321032E-04
2458382.500000000 = A.D. 2018-Sep-21 00:00:00.0000 TDB 
   1.157454189701730E+01 -3.158483793329144E+01  3.171610723250112E-02
   3.006890669158140E-03  4.150226434297491E-04 -9.073377899991676E-04
2458387.500000000 = A.D. 2018-Sep-26 00:00:00.0000 TDB 
   1.158963407201918E+01 -3.158272863010430E+01  2.712671266848050E-02
   3.009143276007490E-03  4.092026450020654E-04 -9.233482204794459E-04
2458392.500000000 = A.D. 2018-Oct-01 00:00:00.0000 TDB 
   1.160471101796604E+01 -3.158061579323405E+01  2.255574165355363E-02
   3.021697620503332E-03  4.206398319105758E-04 -9.296572197783367E-04
2458397.500000000 = A.D. 2018-Oct-06 00:00:00.0000 TDB 
   1.161977279419817E+01 -3.157851452292777E+01  1.797889080429516E-02
   3.023873754349508E-03  4.331006906136683E-04 -9.162364903408455E-04
2458402.500000000 = A.D. 2018-Oct-11 00:00:00.0000 TDB 
   1.163483999459982E+01 -3.157641175938865E+01  1.338119585887108E-02
   3.011486331290935E-03  4.287174206963734E-04 -9.044267681804708E-04
2458407.500000000 = A.D. 2018-Oct-16 00:00:00.0000 TDB 
   1.164992099519014E+01 -3.157428704501420E+01  8.780844178403656E-03
   3.003522394297167E-03  4.164132325152906E-04 -9.130214622214516E-04
2458412.500000000 = A.D. 2018-Oct-21 00:00:00.0000 TDB 
   1.166499861666814E+01 -3.157214508017279E+01  4.200246411026497E-03
   3.011928416938498E-03  4.177154258853969E-04 -9.283424909555568E-04
2458417.500000000 = A.D. 2018-Oct-26 00:00:00.0000 TDB 
   1.168005745949333E+01 -3.157000823832288E+01 -3.696125604992596E-04
   3.022611377948200E-03  4.324983868598499E-04 -9.260272258699814E-04
2458422.500000000 = A.D. 2018-Oct-31 00:00:00.0000 TDB 
   1.169510838255620E+01 -3.156788098957920E+01 -4.954823226641633E-03
   3.017862348250584E-03  4.392067859011366E-04 -9.097547849888453E-04
2458427.500000000 = A.D. 2018-Nov-05 00:00:00.0000 TDB 
   1.171017123756728E+01 -3.156574279302026E+01 -9.557066631732298E-03
   3.004506945317540E-03  4.291138368484708E-04 -9.054080674444819E-04
2458432.500000000 = A.D. 2018-Nov-10 00:00:00.0000 TDB 
   1.172524328381020E+01 -3.156358076854384E+01 -1.415092310823069E-02
   3.003071780287466E-03  4.202279355314132E-04 -9.199036158102347E-04
2458437.500000000 = A.D. 2018-Nov-15 00:00:00.0000 TDB 
   1.174030354357905E+01 -3.156141019669388E+01 -1.872431768255716E-02
   3.015109682000827E-03  4.286283740165908E-04 -9.301785922827633E-04
2458442.500000000 = A.D. 2018-Nov-20 00:00:00.0000 TDB 
   1.175534616979314E+01 -3.155925020469130E+01 -2.329771271556542E-02
   3.020753697783319E-03  4.429018820806772E-04 -9.198965806438436E-04
2458447.500000000 = A.D. 2018-Nov-25 00:00:00.0000 TDB 
   1.177038973320972E+01 -3.155709336011572E+01 -2.789156484656996E-02
   3.010299047777094E-03  4.422953942989634E-04 -9.054020740029315E-04
2458452.500000000 = A.D. 2018-Nov-30 00:00:00.0000 TDB 
   1.178544769311698E+01 -3.155491748285725E+01 -3.249378616463158E-02
   2.999648552450440E-03  4.297153492123055E-04 -9.097554904638423E-04
2458457.500000000 = A.D. 2018-Dec-05 00:00:00.0000 TDB 
   1.180050697322014E+01 -3.155272093689818E+01 -3.707896245919141E-02
   3.005019198547253E-03  4.271241111331922E-04 -9.260249494880320E-04
2458462.500000000 = A.D. 2018-Dec-10 00:00:00.0000 TDB 
   1.181554876904197E+01 -3.155052523089890E+01 -4.164878807881888E-02
   3.017136417669793E-03  4.405816511373096E-04 -9.283330109880199E-04
2458467.500000000 = A.D. 2018-Dec-15 00:00:00.0000 TDB 
   1.183057844604770E+01 -3.154834081024702E+01 -4.622935477740966E-02
   3.016005469250339E-03  4.506337652998276E-04 -9.130072842201639E-04
2458472.500000000 = A.D. 2018-Dec-20 00:00:00.0000 TDB 
   1.184561700505167E+01 -3.154615045321198E+01 -5.082966595322717E-02
   3.002689922535272E-03  4.432310687542848E-04 -9.044177410949847E-04
2458477.500000000 = A.D. 2018-Dec-25 00:00:00.0000 TDB 
   1.186066767606420E+01 -3.154393665691721E+01 -5.542730013390296E-02
   2.997645395082922E-03  4.320931936809807E-04 -9.162305651288807E-04
2458482.500000000 = A.D. 2018-Dec-30 00:00:00.0000 TDB 
   1.187571077006060E+01 -3.154170949356612E+01 -6.000408131996487E-02
   3.008161443174815E-03  4.368791628606406E-04 -9.296449158530533E-04
2458487.500000000 = A.D. 2019-Jan-04 00:00:00.0000 TDB 
   1.189073500305612E+01 -3.153949057882717E+01 -6.457498346663003E-02
   3.016782015747655E-03  4.519148643357444E-04 -9.233286934257092E-04
2458492.500000000 = A.D. 2019-Jan-09 00:00:00.0000 TDB 
   1.190575542863214E+01 -3.153727870508117E+01 -6.916430894033458E-02
   3.009065390023662E-03  4.552320370544991E-04 -9.073174834028857E-04
2458497.500000000 = A.D. 2019-Jan-14 00:00:00.0000 TDB 
   1.192078950381288E+01 -3.153505175742522E+01 -7.376704230589874E-02
   2.996549510944615E-03  4.434881779474627E-04 -9.070786375256861E-04
2458502.500000000 = A.D. 2019-Jan-19 00:00:00.0000 TDB 
   1.193582930822509E+01 -3.153280189589175E+01 -7.835681328297867E-02
   2.998414757501579E-03  4.373095918161760E-04 -9.229866733464651E-04
2458507.500000000 = A.D. 2019-Jan-24 00:00:00.0000 TDB 
   1.195085414478203E+01 -3.153054803243079E+01 -8.292785577768151E-02
   3.010954049370237E-03  4.484570275878198E-04 -9.297318764951604E-04
2458512.500000000 = A.D. 2019-Jan-29 00:00:00.0000 TDB 
   1.196586345423636E+01 -3.152830574580367E+01 -8.750416180164045E-02
   3.013494662565622E-03  4.611416179957112E-04 -9.165858859288479E-04
2458517.500000000 = A.D. 2019-Feb-03 00:00:00.0000 TDB 
   1.198087769713732E+01 -3.152606251783259E+01 -9.210133118976976E-02
   3.001255259325189E-03  4.571242750228273E-04 -9.044456846491866E-04
2458522.500000000 = A.D. 2019-Feb-08 00:00:00.0000 TDB 
   1.199590581458958E+01 -3.152379763390234E+01 -9.670174951728903E-02
   2.992970627629160E-03  4.447299168502778E-04 -9.126239029106899E-04
